[{"OBJECT_NAME":"STARLINK-31385","OBJECT_ID":"2024-031W","EPOCH":"2026-03-09T21:21:34.945056","MEAN_MOTION":15.30187557,"ECCENTRICITY":0.00010354,"INCLINATION":53.1602,"RA_OF_ASC_NODE":293.6053,"ARG_OF_PERICENTER":86.2015,"MEAN_ANOMALY":273.9104,"EPHEMERIS_TYPE":0,"CLASSIFICATION_TYPE":"U","NORAD_CAT_ID":58985,"ELEMENT_SET_NO":999,"REV_AT_EPOCH":11657,"BSTAR":6.2753932e-5,"MEAN_MOTION_DOT":1.499e-5,"MEAN_MOTION_DDOT":0},{"OBJECT_NAME":"TEVEL2-4","OBJECT_ID":"2025-052D","EPOCH":"2026-03-09T16:39:37.129536","MEAN_MOTION":15.30925813,"ECCENTRICITY":0.0004733,"INCLINATION":97.4009,"RA_OF_ASC_NODE":325.1237,"ARG_OF_PERICENTER":95.3468,"MEAN_ANOMALY":264.8313,"EPHEMERIS_TYPE":0,"CLASSIFICATION_TYPE":"U","NORAD_CAT_ID":63213,"ELEMENT_SET_NO":999,"REV_AT_EPOCH":5487,"BSTAR":0.00070362503,"MEAN_MOTION_DOT":0.0002099,"MEAN_MOTION_DDOT":0}]
